

*******************************************************************************
Ephemeris / WWW_USER Wed Oct  8 07:29:26 2025 Pasadena, USA      / Horizons
*******************************************************************************
Target body name: Moon (301)                      {source: DE441}
Center body name: Sun (10)                        {source: DE441}
Center-site name: BODY CENTER
*******************************************************************************
Start time      : A.D. 2025-Oct-08 00:00:00.0000 TDB
Stop  time      : A.D. 2026-Nov-07 00:00:00.0000 TDB
Step-size       : 1440 minutes
*******************************************************************************
Center geodetic : 0.0, 0.0, 0.0                   {E-lon(deg),Lat(deg),Alt(km)}
Center cylindric: 0.0, 0.0, 0.0                   {E-lon(deg),Dxy(km),Dz(km)}
Center radii    : 695700.0, 695700.0, 695700.0 km {Equator_a, b, pole_c}
Output units    : KM-S
Calendar mode   : Mixed Julian/Gregorian
Output type     : GEOMETRIC cartesian states
Output format   : 3 (position, velocity, LT, range, range-rate)
Reference frame : ICRF
*******************************************************************************
            JDTDB,            Calendar Date (TDB),                      X,                      Y,                      Z,                     VX,                     VY,                     VZ,                     LT,                     RG,                     RR,
**************************************************************************************************************************************************************************************************************************************************************************
$$SOE
2461226.500000000, A.D. 2026-Jul-05 00:00:00.0000,  3.366638982218748E+07, -1.362867902483478E+08, -5.907250146725184E+07,  2.889469863362200E+01,  6.706067348348789E+00,  3.001690406265562E+00,  5.080376686512846E+02,  1.523058614415582E+08, -7.779448926552436E-01,
2461227.500000000, A.D. 2026-Jul-06 00:00:00.0000,  3.614874176050286E+07, -1.356856026021481E+08, -5.880392298281867E+07,  2.856282347883923E+01,  7.203162286568051E+00,  3.211483624909423E+00,  5.077982373318385E+02,  1.522340817377792E+08, -8.782732474895077E-01,
2461228.500000000, A.D. 2026-Jul-07 00:00:00.0000,  3.860144036836733E+07, -1.350433928523597E+08, -5.851826624026927E+07,  2.820999436543189E+01,  7.654849050768968E+00,  3.396681009390598E+00,  5.075348065013526E+02,  1.521551071615949E+08, -9.434994238322220E-01,
2461229.500000000, A.D. 2026-Jul-08 00:00:00.0000,  4.102314821485786E+07, -1.343642705651830E+08, -5.821773109353624E+07,  2.784748832961863E+01,  8.057093893991819E+00,  3.555716754394254E+00,  5.072583248215039E+02,  1.520722200392011E+08, -9.679589381814223E-01,
2461230.500000000, A.D. 2026-Jul-09 00:00:00.0000,  4.341358600674737E+07, -1.336526105576399E+08, -5.790460411162782E+07,  2.748849608013658E+01,  8.407926218907622E+00,  3.688220105158964E+00,  5.069812463671450E+02,  1.519891540083100E+08, -9.469887885538840E-01,
2461231.500000000, A.D. 2026-Jul-10 00:00:00.0000,  4.577368491002882E+07, -1.329128363159075E+08, -5.758113564235249E+07,  2.714773898805509E+01,  8.708357431003810E+00,  3.795483632903863E+00,  5.067171222628011E+02,  1.519099715938517E+08, -8.778139568057877E-01,
2461232.500000000, A.D. 2026-Jul-11 00:00:00.0000,  4.810568070536016E+07, -1.321491188304759E+08, -5.724937494499734E+07,  2.684046324951317E+01,  8.963377237012672E+00,  3.880940719359698E+00,  5.064798936976484E+02,  1.518388522591967E+08, -7.607083247447992E-01,
2461233.500000000, A.D. 2026-Jul-12 00:00:00.0000,  5.041308728010651E+07, -1.313649986329169E+08, -5.691097072001550E+07,  2.658064543406936E+01,  9.182654564017644E+00,  3.950445973631870E+00,  5.062828411301568E+02,  1.517797773856332E+08, -6.001505781916617E-01,
2461234.500000000, A.D. 2026-Jul-13 00:00:00.0000,  5.270048547486688E+07, -1.305629792068879E+08, -5.656696587125725E+07,  2.637858183209810E+01,  9.380407650044164E+00,  4.012083216751862E+00,  5.061372621940317E+02,  1.517361339185392E+08, -4.054490718898216E-01,
2461235.500000000, A.D. 2026-Jul-14 00:00:00.0000,  5.497309956197102E+07, -1.297441840383836E+08, -5.621763688900024E+07,  2.623853480569098E+01,  9.574022016845733E+00,  4.075311731683606E+00,  5.060511174246166E+02,  1.517103083663724E+08, -1.902605285017484E-01,
2461236.500000000, A.D. 2026-Jul-15 00:00:00.0000,  5.723620859594063E+07, -1.289081863541611E+08, -5.586243333359770E+07,  2.615742902933809E+01,  9.781509743008574E+00,  4.149550886757807E+00,  5.060280073007016E+02,  1.517033801255193E+08,  2.921077763970098E-02,
2461237.500000000, A.D. 2026-Jul-16 00:00:00.0000,  5.949451910391437E+07, -1.280530825855541E+08, -5.550004869458944E+07,  2.612532234895167E+01,  1.001858216172652E+01,  4.242649788604342E+00,  5.060668103776029E+02,  1.517150129953215E+08,  2.368644346316489E-01,
2461238.500000000, A.D. 2026-Jul-17 00:00:00.0000,  6.175165455711689E+07, -1.271757961622784E+08, -5.512860761500960E+07,  2.612753957256775E+01,  1.029641386889880E+01,  4.359808364946550E+00,  5.061620916952101E+02,  1.517435776157284E+08,  4.192203919983620E-01,
2461239.500000000, A.D. 2026-Jul-18 00:00:00.0000,  6.400986963952670E+07, -1.262725166713344E+08, -5.474591358835355E+07,  2.614755094369802E+01,  1.062080251274205E+01,  4.503277115530126E+00,  5.063051043863468E+02,  1.517864517419295E+08,  5.669138722664435E-01,
2461240.500000000, A.D. 2026-Jul-19 00:00:00.0000,  6.627000500034565E+07, -1.253391503124013E+08, -5.434969047872324E+07,  2.616950313581147E+01,  1.099268177307246E+01,  4.672757470188203E+00,  5.064850338523212E+02,  1.518403932388006E+08,  6.748980702863883E-01,
2461241.500000000, A.D. 2026-Jul-20 00:00:00.0000,  6.853162035540809E+07, -1.243716877203367E+08, -5.393777116068447E+07,  2.617976393230275E+01,  1.140940427473807E+01,  4.866160792047036E+00,  5.066901503332785E+02,  1.519018856128031E+08,  7.416952698311660E-01,
2461242.500000000, A.D. 2026-Jul-21 00:00:00.0000,  7.079321539079897E+07, -1.233664518603421E+08, -5.350821807325887E+07,  2.616744415978381E+01,  1.186614104561901E+01,  5.080377431644896E+00,  5.069086776325386E+02,  1.519673984489883E+08,  7.682690514055607E-01,
2461243.500000000, A.D. 2026-Jul-22 00:00:00.0000,  7.305246267163382E+07, -1.223202358935173E+08, -5.305938477803571E+07,  2.612422009228847E+01,  1.235698605617629E+01,  5.311853878790865E+00,  5.071293398306275E+02,  1.520335513117411E+08,  7.569741281489639E-01,
2461244.500000000, A.D. 2026-Jul-23 00:00:00.0000,  7.530640907683815E+07, -1.212303638084524E+08, -5.258993812290847E+07,  2.604384063614063E+01,  1.287563675145270E+01,  5.556929008206456E+00,  5.073416457242387E+02,  1.520971990174347E+08,  7.108049144661234E-01,
2461245.500000000, A.D. 2026-Jul-24 00:00:00.0000,  7.755163174439113E+07, -1.200947091588108E+08, -5.209886046802333E+07,  2.592160325654454E+01,  1.341569989133423E+01,  5.811970001133264E+00,  5.075360054583765E+02,  1.521554665998681E+08,  6.329778441938855E-01,
2461246.500000000, A.D. 2026-Jul-25 00:00:00.0000,  7.978435339343376E+07, -1.189116994207909E+08, -5.158544631877245E+07,  2.575395435598351E+01,  1.397073952597363E+01,  6.073377851571712E+00,  5.077037683780532E+02,  1.522057606579192E+08,  5.267889266145619E-01,
2461247.500000000, A.D. 2026-Jul-26 00:00:00.0000,  8.200053089601922E+07, -1.176803229656844E+08, -5.104930167039477E+07,  2.553827381758097E+01,  1.453418708131597E+01,  6.337529173314509E+00,  5.078372492640248E+02,  1.522457772208207E+08,  3.956611731554023E-01,
2461248.500000000, A.D. 2026-Jul-27 00:00:00.0000,  8.419593340163827E+07, -1.164001460773343E+08, -5.049034916756546E+07,  2.527284568247536E+01,  1.509921341240757E+01,  6.600707419591955E+00,  5.079297856445346E+02,  1.522735189297881E+08,  2.433001022550462E-01,
2461249.500000000, A.D. 2026-Jul-28 00:00:00.0000,  8.636622493748131E+07, -1.150713398337261E+08, -4.990883821229097E+07,  2.495698392764568E+01,  1.565863927257208E+01,  6.859062519015527E+00,  5.079758469057511E+02,  1.522873277485068E+08,  7.388694256509253E-02,
2461250.500000000, A.D. 2026-Jul-29 00:00:00.0000,  8.850706277027772E+07, -1.136947110406129E+08, -4.930535634972582E+07,  2.459126158638511E+01,  1.620493813187949E+01,  7.108624907548826E+00,  5.079711973064568E+02,  1.522859338337057E+08, -1.077493457123300E-01,
2461251.500000000, A.D. 2026-Jul-30 00:00:00.0000,  9.061421772142608E+07, -1.122717277574212E+08, -4.868083658702628E+07,  2.417777835028210E+01,  1.673036139401896E+01,  7.345386562887664E+00,  5.079130997796212E+02,  1.522685166333319E+08, -2.960275189699259E-01,
2461252.500000000, A.D. 2026-Jul-31 00:00:00.0000,  9.268371679290919E+07, -1.108045284940868E+08, -4.803655482639582E+07,  2.372039846595866E+01,  1.722718946740984E+01,  7.565447334970735E+00,  5.078005363701375E+02,  1.522347709721219E+08, -4.846063603092175E-01,
2461253.500000000, A.D. 2026-Aug-01 00:00:00.0000,  9.471200291422379E+07, -1.092959050022244E+08, -4.737411233100909E+07,  2.322490118789298E+01,  1.768808640646359E+01,  7.765211721772095E+00,  5.076344157042313E+02,  1.521849692493653E+08, -6.664818177727121E-01,
2461254.500000000, A.D. 2026-Aug-02 00:00:00.0000,  9.669610258373937E+07, -1.077492513325807E+08, -4.669539981391090E+07,  2.269900984347867E+01,  1.810651903614391E+01,  7.941613540318775E+00,  5.074177386885560E+02,  1.521200111142439E+08, -8.341762830056469E-01,
2461255.500000000, A.D. 2026-Aug-03 00:00:00.0000,  9.863379048648810E+07, -1.061684753471514E+08, -4.600254169805115E+07,  2.215229387753915E+01,  1.847720141115282E+01,  8.092347376526087E+00,  5.071556991712195E+02,  1.520414536432484E+08, -9.799967932784344E-01,
